******** Week 926 almanac for PRN-01 ********
ID:                         01
Health:                     000
Eccentricity:               0.6667137146E-002
Time of Applicability(s):  319488.0000
Orbital Inclination(rad):   0.9674229602
Rate of Right Ascen(r/s):  -0.7817468486E-008
SQRT(A)  (m 1/2):           5153.631348
Right Ascen at Week(rad):  -0.2392181245E+001
Argument of Perigee(rad):   0.547291838
Mean Anom(rad):            -0.1469235638E+001
Af0(s):                     0.5531311035E-004
Af1(s/s):                   0.0000000000E+000
week:                        926

******** Week 926 almanac for PRN-02 ********
ID:                         02
Health:                     000
Eccentricity:               0.1678752899E-001
Time of Applicability(s):  319488.0000
Orbital Inclination(rad):   0.9463906455
Rate of Right Ascen(r/s):  -0.8011762293E-008
SQRT(A)  (m 1/2):           5153.733398
Right Ascen at Week(rad):  -0.2445496066E+001
Argument of Perigee(rad):  -1.977900072
Mean Anom(rad):            -0.1155081167E+001
Af0(s):                     0.4129409790E-003
Af1(s/s):                  -0.7275957614E-011
week:                        926

******** Week 926 almanac for PRN-03 ********
ID:                         03
Health:                     000
Eccentricity:               0.6651878357E-003
Time of Applicability(s):  319488.0000
Orbital Inclination(rad):   0.9593815453
Rate of Right Ascen(r/s):  -0.8091765626E-008
SQRT(A)  (m 1/2):           5153.667969
Right Ascen at Week(rad):  -0.1349547686E+001
Argument of Perigee(rad):   0.051334427
Mean Anom(rad):            -0.2093517508E+001
Af0(s):                    -0.9918212891E-004
Af1(s/s):                   0.3637978807E-011
week:                        926

******** Week 926 almanac for PRN-05 ********
ID:                         05
Health:                     000
Eccentricity:               0.4961013794E-002
Time of Applicability(s):  319488.0000
Orbital Inclination(rad):   0.9463427086
Rate of Right Ascen(r/s):  -0.8251772291E-008
SQRT(A)  (m 1/2):           5153.681641
Right Ascen at Week(rad):  -0.1366352191E+001
Argument of Perigee(rad):   0.535376148
Mean Anom(rad):             0.1480659601E+001
Af0(s):                    -0.4482269287E-004
Af1(s/s):                   0.0000000000E+000
week:                        926

******** Week 926 almanac for PRN-06 ********
ID:                         06
Health:                     000
Eccentricity:               0.7915496826E-003
Time of Applicability(s):  319488.0000
Orbital Inclination(rad):   0.9672012521
Rate of Right Ascen(r/s):  -0.7851755629E-008
SQRT(A)  (m 1/2):           5153.622559
Right Ascen at Week(rad):  -0.2400555597E+001
Argument of Perigee(rad):  -1.098221263
Mean Anom(rad):            -0.1380809660E+001
Af0(s):                     0.3547668457E-003
Af1(s/s):                   0.3637978807E-011
week:                        926

******** Week 926 almanac for PRN-07 ********
ID:                         07
Health:                     000
Eccentricity:               0.1053857803E-001
Time of Applicability(s):  319488.0000
Orbital Inclination(rad):   0.9625453807
Rate of Right Ascen(r/s):  -0.8103194673E-008
SQRT(A)  (m 1/2):           5153.691406
Right Ascen at Week(rad):   0.7648748037E+000
Argument of Perigee(rad):  -2.602866915
Mean Anom(rad):            -0.2092631798E+001
Af0(s):                     0.3480911255E-003
Af1(s/s):                  -0.3637978807E-011
week:                        926

******** Week 926 almanac for PRN-08 ********
ID:                         08
Health:                     000
Eccentricity:               0.2579689026E-002
Time of Applicability(s):  319488.0000
Orbital Inclination(rad):   0.9670334729
Rate of Right Ascen(r/s):  -0.7703178011E-008
SQRT(A)  (m 1/2):           5153.596680
Right Ascen at Week(rad):   0.2828596532E+001
Argument of Perigee(rad):  -0.670833467
Mean Anom(rad):             0.1197183996E+001
Af0(s):                    -0.6103515625E-004
Af1(s/s):                   0.0000000000E+000
week:                        926

******** Week 926 almanac for PRN-09 ********
ID:                         09
Health:                     000
Eccentricity:               0.7452964783E-003
Time of Applicability(s):  319488.0000
Orbital Inclination(rad):   0.9538568176
Rate of Right Ascen(r/s):  -0.7737465154E-008
SQRT(A)  (m 1/2):           5153.583984
Right Ascen at Week(rad):  -0.3132294393E+000
Argument of Perigee(rad):   1.958313355
Mean Anom(rad):             0.6766480635E+000
Af0(s):                     0.3700256348E-003
Af1(s/s):                   0.7275957614E-011
week:                        926

******** Week 926 almanac for PRN-10 ********
ID:                         10
Health:                     000
Eccentricity:               0.2531528473E-002
Time of Applicability(s):  319488.0000
Orbital Inclination(rad):   0.9595493245
Rate of Right Ascen(r/s):  -0.8103194673E-008
SQRT(A)  (m 1/2):           5153.607422
Right Ascen at Week(rad):  -0.1353265417E+001
Argument of Perigee(rad):  -2.767290481
Mean Anom(rad):             0.2613277461E+001
Af0(s):                    -0.4482269287E-004
Af1(s/s):                   0.1091393642E-010
week:                        926

******** Week 926 almanac for PRN-11 ********
ID:                         11
Health:                     000
Eccentricity:               0.1675891876E-001
Time of Applicability(s):  319488.0000
Orbital Inclination(rad):   0.9011142438
Rate of Right Ascen(r/s):  -0.8286059433E-008
SQRT(A)  (m 1/2):           5153.648926
Right Ascen at Week(rad):  -0.2794275959E+001
Argument of Perigee(rad):   1.642843989
Mean Anom(rad):            -0.2081542271E+001
Af0(s):                    -0.6904602051E-003
Af1(s/s):                  -0.3637978807E-011
week:                        926

******** Week 926 almanac for PRN-12 ********
ID:                         12
Health:                     000
Eccentricity:               0.6669044495E-002
Time of Applicability(s):  319488.0000
Orbital Inclination(rad):   0.9889705966
Rate of Right Ascen(r/s):  -0.8034620388E-008
SQRT(A)  (m 1/2):           5153.735352
Right Ascen at Week(rad):   0.1849586100E+001
Argument of Perigee(rad):   0.878746287
Mean Anom(rad):            -0.2685998113E+001
Af0(s):                     0.3833770752E-003
Af1(s/s):                   0.0000000000E+000
week:                        926

******** Week 926 almanac for PRN-13 ********
ID:                         13
Health:                     000
Eccentricity:               0.3735542297E-002
Time of Applicability(s):  319488.0000
Orbital Inclination(rad):   0.9699995686
Rate of Right Ascen(r/s):  -0.7554600394E-008
SQRT(A)  (m 1/2):           5153.649902
Right Ascen at Week(rad):  -0.1871254327E+000
Argument of Perigee(rad):   1.840992662
Mean Anom(rad):            -0.1041175978E+001
Af0(s):                    -0.8296966553E-004
Af1(s/s):                   0.0000000000E+000
week:                        926

******** Week 926 almanac for PRN-14 ********
ID:                         14
Health:                     000
Eccentricity:               0.9117603302E-002
Time of Applicability(s):  319488.0000
Orbital Inclination(rad):   0.9624974438
Rate of Right Ascen(r/s):  -0.7611745631E-008
SQRT(A)  (m 1/2):           5153.612305
Right Ascen at Week(rad):  -0.2265325603E+000
Argument of Perigee(rad):  -1.961816493
Mean Anom(rad):             0.3403437482E+000
Af0(s):                    -0.7152557373E-004
Af1(s/s):                   0.0000000000E+000
week:                        926

******** Week 926 almanac for PRN-15 ********
ID:                         15
Health:                     000
Eccentricity:               0.9136676788E-002
Time of Applicability(s):  319488.0000
Orbital Inclination(rad):   0.9294269752
Rate of Right Ascen(r/s):  -0.7988904198E-008
SQRT(A)  (m 1/2):           5153.749023
Right Ascen at Week(rad):  -0.3747111346E+000
Argument of Perigee(rad):   0.582737805
Mean Anom(rad):            -0.2286432819E+000
Af0(s):                    -0.3509521484E-003
Af1(s/s):                   0.0000000000E+000
week:                        926

******** Week 926 almanac for PRN-16 ********
ID:                         16
Health:                     000
Eccentricity:               0.9356498718E-002
Time of Applicability(s):  319488.0000
Orbital Inclination(rad):   0.9894559577
Rate of Right Ascen(r/s):  -0.8046049436E-008
SQRT(A)  (m 1/2):           5153.652832
Right Ascen at Week(rad):   0.1868456760E+001
Argument of Perigee(rad):   0.450898972
Mean Anom(rad):             0.1594488016E+001
Af0(s):                     0.3337860107E-004
Af1(s/s):                   0.0000000000E+000
week:                        926

******** Week 926 almanac for PRN-17 ********
ID:                         17
Health:                     000
Eccentricity:               0.1161289215E-001
Time of Applicability(s):  319488.0000
Orbital Inclination(rad):   0.9802940178
Rate of Right Ascen(r/s):  -0.7520313251E-008
SQRT(A)  (m 1/2):           5153.596680
Right Ascen at Week(rad):   0.2886093098E+001
Argument of Perigee(rad):  -1.848529241
Mean Anom(rad):             0.6435296580E+000
Af0(s):                    -0.1783370972E-003
Af1(s/s):                   0.0000000000E+000
week:                        926

